[{"OBJECT_NAME":"STARLINK-11178 [DTC]","OBJECT_ID":"2024-254D","EPOCH":"2026-03-09T11:13:38.713152","MEAN_MOTION":15.71047852,"ECCENTRICITY":9.202e-5,"INCLINATION":42.999,"RA_OF_ASC_NODE":224.5604,"ARG_OF_PERICENTER":275.5999,"MEAN_ANOMALY":84.4764,"EPHEMERIS_TYPE":0,"CLASSIFICATION_TYPE":"U","NORAD_CAT_ID":62465,"ELEMENT_SET_NO":999,"REV_AT_EPOCH":6920,"BSTAR":0.0017024507,"MEAN_MOTION_DOT":0.00226009,"MEAN_MOTION_DDOT":0},{"OBJECT_NAME":"OBJECT AA","OBJECT_ID":"2018-111AA","EPOCH":"2026-03-09T23:36:11.109888","MEAN_MOTION":15.74757696,"ECCENTRICITY":0.00074829,"INCLINATION":96.9708,"RA_OF_ASC_NODE":294.3811,"ARG_OF_PERICENTER":159.1179,"MEAN_ANOMALY":201.0394,"EPHEMERIS_TYPE":0,"CLASSIFICATION_TYPE":"U","NORAD_CAT_ID":43900,"ELEMENT_SET_NO":999,"REV_AT_EPOCH":40295,"BSTAR":0.00046694108,"MEAN_MOTION_DOT":0.00068892,"MEAN_MOTION_DDOT":0}]
